0 COSMOS 566
1 06677U 73037C   13280.47311953  .00000003  00000-0  12149-3 0  9367
2 06677 074.0172 298.2403 0032381 259.5037 276.5717 12.51635562842707
0 COSMOS 566
1 06677U 73037C   13282.77654178  .00000022  00000-0  24662-3 0  9376
2 06677 074.0170 295.1672 0032362 256.0926 215.4776 12.51635551842993
0 COSMOS 566
1 06677U 73037C   13285.49431306 -.00000000  00000-0  10324-3 0  9382
2 06677 074.0167 291.5413 0032339 252.0927 221.3569 12.51635890843334
0 COSMOS 566
1 06677U 73037C   13287.50472787 -.00000027  00000-0 -71749-4 0  9394
2 06677 074.0168 288.8589 0032297 249.1985 279.9284 12.51636155843587
0 COSMOS 566
1 06677U 73037C   13289.72986355 -.00000032  00000-0 -10242-3 0  9409
2 06677 074.0171 285.8901 0032289 245.8536 226.1387 12.51636202843864
0 COSMOS 566
1 06677U 73037C   13292.19942637 -.00000013  00000-0  21111-4 0  9416
2 06677 074.0174 282.5951 0032254 242.1840 193.6681 12.51635978844175
0 COSMOS 566
1 06677U 73037C   13294.44571624  .00000010  00000-0  16875-3 0  9427
2 06677 074.0176 279.5984 0032204 238.8616 235.1416 12.51635800844450
